OPTICUBE 04             
1 41851U 16067D   26068.51005515  .00003771  00000+0  24102-3 0  9992
2 41851  98.0811 275.5525 0017089  94.6311 265.6869 15.09188144510131
STARLINK-4255           
1 53003U 22076T   26068.79609507  .00000469  00000+0  47579-4 0  9997
2 53003  53.2170  93.6442 0001609  73.3549 286.7619 15.08841248202864
